{
  "type": "FeatureCollection",
  "features": [
    {
      "type": "Feature",
      "properties": {
        "norad_id": 29790,
        "name": "FENGYUN 1C DEB",
        "group": "fengyun-1c-debris",
        "lat": -28.66974661449236,
        "lon": 170.83870505235177,
        "alt_km": 774.2169265650346,
        "timestamp": "2025-12-27T02:10:16.460722+00:00",
        "meta_object_name": "FENGYUN 1C DEB",
        "meta_object_id": "1999-025CG",
        "meta_epoch": "2025-12-26T16:49:21.024192",
        "meta_mean_motion": 14.32290101,
        "meta_eccentricity": 0.0077079,
        "meta_inclination": 99.148,
        "meta_ra_of_asc_node": 355.4829,
        "meta_arg_of_pericenter": 136.1555,
        "meta_mean_anomaly": 224.578,
        "meta_ephemeris_type": 0,
        "meta_classification_type": "U",
        "meta_norad_cat_id": 29790,
        "meta_element_set_no": 999,
        "meta_rev_at_epoch": 98725,
        "meta_bstar": 0.00028411,
        "meta_mean_motion_dot": 7.44e-06,
        "meta_mean_motion_ddot": 0,
        "tle_line1": "1 29790U 99025CG  25360.70093778  .00000744  00000+0  28411-3 0  9992",
        "tle_line2": "2 29790  99.1480 355.4829 0077079 136.1555 224.5780 14.32290101987254"
      },
      "geometry": {
        "type": "Point",
        "coordinates": [
          170.83870505235177,
          -28.66974661449236
        ]
      }
    },
    {
      "type": "Feature",
      "properties": {
        "norad_id": 29791,
        "name": "FENGYUN 1C DEB",
        "group": "fengyun-1c-debris",
        "lat": 42.134822771111885,
        "lon": -5.406803427026956,
        "alt_km": 668.113097753966,
        "timestamp": "2025-12-27T02:10:16.460732+00:00",
        "meta_object_name": "FENGYUN 1C DEB",
        "meta_object_id": "1999-025CH",
        "meta_epoch": "2025-12-26T18:32:17.615040",
        "meta_mean_motion": 14.58444335,
        "meta_eccentricity": 0.0041025,
        "meta_inclination": 99.0372,
        "meta_ra_of_asc_node": 2.5261,
        "meta_arg_of_pericenter": 20.1574,
        "meta_mean_anomaly": 153.6406,
        "meta_ephemeris_type": 0,
        "meta_classification_type": "U",
        "meta_norad_cat_id": 29791,
        "meta_element_set_no": 999,
        "meta_rev_at_epoch": 99050,
        "meta_bstar": 0.0017931,
        "meta_mean_motion_dot": 8.368e-05,
        "meta_mean_motion_ddot": 0,
        "tle_line1": "1 29791U 99025CH  25360.77242610  .00008368  00000+0  17931-2 0  9995",
        "tle_line2": "2 29791  99.0372   2.5261 0041025  20.1574 153.6406 14.58444335990506"
      },
      "geometry": {
        "type": "Point",
        "coordinates": [
          -5.406803427026956,
          42.134822771111885
        ]
      }
    },
    {
      "type": "Feature",
      "properties": {
        "norad_id": 29792,
        "name": "FENGYUN 1C DEB",
        "group": "fengyun-1c-debris",
        "lat": -4.129732050610327,
        "lon": 52.03007362094315,
        "alt_km": 810.7315369494909,
        "timestamp": "2025-12-27T02:10:16.460742+00:00",
        "meta_object_name": "FENGYUN 1C DEB",
        "meta_object_id": "1999-025CJ",
        "meta_epoch": "2025-12-26T02:26:08.520864",
        "meta_mean_motion": 14.15219274,
        "meta_eccentricity": 0.0047444,
        "meta_inclination": 98.7564,
        "meta_ra_of_asc_node": 50.4217,
        "meta_arg_of_pericenter": 357.3203,
        "meta_mean_anomaly": 2.771,
        "meta_ephemeris_type": 0,
        "meta_classification_type": "U",
        "meta_norad_cat_id": 29792,
        "meta_element_set_no": 999,
        "meta_rev_at_epoch": 97128,
        "meta_bstar": 0.0012362945,
        "meta_mean_motion_dot": 2.386e-05,
        "meta_mean_motion_ddot": 0,
        "tle_line1": "1 29792U 99025CJ  25360.10148751  .00002386  00000+0  12363-2 0  9992",
        "tle_line2": "2 29792  98.7564  50.4217 0047444 357.3203   2.7710 14.15219274971285"
      },
      "geometry": {
        "type": "Point",
        "coordinates": [
          52.03007362094315,
          -4.129732050610327
        ]
      }
    },
    {
      "type": "Feature",
      "properties": {
        "norad_id": 29793,
        "name": "FENGYUN 1C DEB",
        "group": "fengyun-1c-debris",
        "lat": -31.054063879742237,
        "lon": -176.2638783940031,
        "alt_km": 806.2797383052648,
        "timestamp": "2025-12-27T02:10:16.460752+00:00",
        "meta_object_name": "FENGYUN 1C DEB",
        "meta_object_id": "1999-025CK",
        "meta_epoch": "2025-12-26T11:01:51.103200",
        "meta_mean_motion": 14.01119873,
        "meta_eccentricity": 0.0143536,
        "meta_inclination": 98.3537,
        "meta_ra_of_asc_node": 178.0827,
        "meta_arg_of_pericenter": 299.1965,
        "meta_mean_anomaly": 88.3932,
        "meta_ephemeris_type": 0,
        "meta_classification_type": "U",
        "meta_norad_cat_id": 29793,
        "meta_element_set_no": 999,
        "meta_rev_at_epoch": 96341,
        "meta_bstar": 0.0010324,
        "meta_mean_motion_dot": 1.655e-05,
        "meta_mean_motion_ddot": 0,
        "tle_line1": "1 29793U 99025CK  25360.45961925  .00001655  00000+0  10324-2 0  9990",
        "tle_line2": "2 29793  98.3537 178.0827 0143536 299.1965  88.3932 14.01119873963414"
      },
      "geometry": {
        "type": "Point",
        "coordinates": [
          -176.2638783940031,
          -31.054063879742237
        ]
      }
    },
    {
      "type": "Feature",
      "properties": {
        "norad_id": 29794,
        "name": "FENGYUN 1C DEB",
        "group": "fengyun-1c-debris",
        "lat": -35.64065417700142,
        "lon": 164.38320773125304,
        "alt_km": 775.7789710896395,
        "timestamp": "2025-12-27T02:10:16.460763+00:00",
        "meta_object_name": "FENGYUN 1C DEB",
        "meta_object_id": "1999-025CL",
        "meta_epoch": "2025-12-25T16:19:10.134624",
        "meta_mean_motion": 14.09022028,
        "meta_eccentricity": 0.01565628,
        "meta_inclination": 98.2002,
        "meta_ra_of_asc_node": 157.1643,
        "meta_arg_of_pericenter": 3.3329,
        "meta_mean_anomaly": 11.0893,
        "meta_ephemeris_type": 0,
        "meta_classification_type": "U",
        "meta_norad_cat_id": 29794,
        "meta_element_set_no": 999,
        "meta_rev_at_epoch": 97030,
        "meta_bstar": 0.00051358158,
        "meta_mean_motion_dot": 9.58e-06,
        "meta_mean_motion_ddot": 0,
        "tle_line1": "1 29794U 99025CL  25359.67997841  .00000958  00000+0  51358-3 0  9997",
        "tle_line2": "2 29794  98.2002 157.1643 0156562   3.3329  11.0893 14.09022028970305"
      },
      "geometry": {
        "type": "Point",
        "coordinates": [
          164.38320773125304,
          -35.64065417700142
        ]
      }
    },
    {
      "type": "Feature",
      "properties": {
        "norad_id": 29795,
        "name": "FENGYUN 1C DEB",
        "group": "fengyun-1c-debris",
        "lat": -49.938958720996666,
        "lon": 140.57189584508453,
        "alt_km": 900.3093256973107,
        "timestamp": "2025-12-27T02:10:16.460773+00:00",
        "meta_object_name": "FENGYUN 1C DEB",
        "meta_object_id": "1999-025CM",
        "meta_epoch": "2025-12-24T19:59:46.682016",
        "meta_mean_motion": 13.92915318,
        "meta_eccentricity": 0.0111225,
        "meta_inclination": 98.8709,
        "meta_ra_of_asc_node": 127.7057,
        "meta_arg_of_pericenter": 242.788,
        "meta_mean_anomaly": 272.3224,
        "meta_ephemeris_type": 0,
        "meta_classification_type": "U",
        "meta_norad_cat_id": 29795,
        "meta_element_set_no": 999,
        "meta_rev_at_epoch": 96233,
        "meta_bstar": 0.00022846706,
        "meta_mean_motion_dot": 2.69e-06,
        "meta_mean_motion_ddot": 0,
        "tle_line1": "1 29795U 99025CM  25358.83317919  .00000269  00000+0  22847-3 0  9993",
        "tle_line2": "2 29795  98.8709 127.7057 0111225 242.7880 272.3224 13.92915318962334"
      },
      "geometry": {
        "type": "Point",
        "coordinates": [
          140.57189584508453,
          -49.938958720996666
        ]
      }
    },
    {
      "type": "Feature",
      "properties": {
        "norad_id": 29796,
        "name": "FENGYUN 1C DEB",
        "group": "fengyun-1c-debris",
        "lat": -34.25190260677866,
        "lon": -133.29384559369274,
        "alt_km": 820.3070962375896,
        "timestamp": "2025-12-27T02:10:16.460783+00:00",
        "meta_object_name": "FENGYUN 1C DEB",
        "meta_object_id": "1999-025CN",
        "meta_epoch": "2025-12-26T09:57:03.282048",
        "meta_mean_motion": 14.12368316,
        "meta_eccentricity": 0.0052537,
        "meta_inclination": 98.8635,
        "meta_ra_of_asc_node": 52.1372,
        "meta_arg_of_pericenter": 228.917,
        "meta_mean_anomaly": 151.3851,
        "meta_ephemeris_type": 0,
        "meta_classification_type": "U",
        "meta_norad_cat_id": 29796,
        "meta_element_set_no": 999,
        "meta_rev_at_epoch": 97254,
        "meta_bstar": 0.00063917,
        "meta_mean_motion_dot": 1.149e-05,
        "meta_mean_motion_ddot": 0,
        "tle_line1": "1 29796U 99025CN  25360.41462132  .00001149  00000+0  63917-3 0  9990",
        "tle_line2": "2 29796  98.8635  52.1372 0052537 228.9170 151.3851 14.12368316972541"
      },
      "geometry": {
        "type": "Point",
        "coordinates": [
          -133.29384559369274,
          -34.25190260677866
        ]
      }
    }
  ]
}